[{"OBJECT_NAME":"STARLINK-32657","OBJECT_ID":"2024-254P","EPOCH":"2026-03-09T05:22:12.579744","MEAN_MOTION":15.27562695,"ECCENTRICITY":0.0001536,"INCLINATION":43.0009,"RA_OF_ASC_NODE":22.3035,"ARG_OF_PERICENTER":254.2354,"MEAN_ANOMALY":105.8328,"EPHEMERIS_TYPE":0,"CLASSIFICATION_TYPE":"U","NORAD_CAT_ID":62475,"ELEMENT_SET_NO":999,"REV_AT_EPOCH":6739,"BSTAR":0.00093504299,"MEAN_MOTION_DOT":0.00025544,"MEAN_MOTION_DDOT":0},{"OBJECT_NAME":"CZ-6A DEB","OBJECT_ID":"2022-151SD","EPOCH":"2026-03-09T21:25:15.700512","MEAN_MOTION":15.24469357,"ECCENTRICITY":0.00248717,"INCLINATION":98.6538,"RA_OF_ASC_NODE":157.5128,"ARG_OF_PERICENTER":174.047,"MEAN_ANOMALY":186.1065,"EPHEMERIS_TYPE":0,"CLASSIFICATION_TYPE":"U","NORAD_CAT_ID":54940,"ELEMENT_SET_NO":999,"REV_AT_EPOCH":17680,"BSTAR":0.0087519903,"MEAN_MOTION_DOT":0.00223015,"MEAN_MOTION_DDOT":0}]
